ALOS-4 (DAICHI-4)       
1 60182U 24123A   24261.17785792  .00003966  00000+0  53761-3 0  9998
2 60182  97.9218 356.5139 0001525 100.4965 259.6418 14.79478669 11542
